CCSDS_OMM_VERS = 2.0
CREATION_DATE  = 
ORIGINATOR     = 

OBJECT_NAME    = STARLINK-35473
OBJECT_ID      = 2025-225AD
CENTER_NAME    = EARTH
REF_FRAME      = TEME
TIME_SYSTEM    = UTC
MEAN_ELEMENT_THEORY = SGP/SGP4

EPOCH          = 2025-10-27T03:53:58.236576
MEAN_MOTION    = 15.74291255
ECCENTRICITY   = .0000615
INCLINATION    = 53.1597
RA_OF_ASC_NODE = 69.5235
ARG_OF_PERICENTER = 78.1218
MEAN_ANOMALY   = 281.9871

EPHEMERIS_TYPE = 0
CLASSIFICATION_TYPE = U
NORAD_CAT_ID   = 65937
ELEMENT_SET_NO = 999
REV_AT_EPOCH   = 302
BSTAR          = .18821E-2
MEAN_MOTION_DOT = .285836E-2
MEAN_MOTION_DDOT = 0

CCSDS_OMM_VERS = 2.0
CREATION_DATE  = 
ORIGINATOR     = 

OBJECT_NAME    = 2025-226A
OBJECT_ID      = 2025-226A
CENTER_NAME    = EARTH
REF_FRAME      = TEME
TIME_SYSTEM    = UTC
MEAN_ELEMENT_THEORY = SGP/SGP4

EPOCH          = 2025-10-27T03:52:59.490624
MEAN_MOTION    = 15.11732962
ECCENTRICITY   = .0014494
INCLINATION    = 97.6663
RA_OF_ASC_NODE = 14.3387
ARG_OF_PERICENTER = 226.0799
MEAN_ANOMALY   = 133.9236

EPHEMERIS_TYPE = 0
CLASSIFICATION_TYPE = U
NORAD_CAT_ID   = 65938
ELEMENT_SET_NO = 999
REV_AT_EPOCH   = 243
BSTAR          = .68922E-3
MEAN_MOTION_DOT = .11719E-3
MEAN_MOTION_DDOT = 0

CCSDS_OMM_VERS = 2.0
CREATION_DATE  = 
ORIGINATOR     = 

OBJECT_NAME    = 2025-226B
OBJECT_ID      = 2025-226B
CENTER_NAME    = EARTH
REF_FRAME      = TEME
TIME_SYSTEM    = UTC
MEAN_ELEMENT_THEORY = SGP/SGP4

EPOCH          = 2025-10-27T04:16:37.693056
MEAN_MOTION    = 15.09632900
ECCENTRICITY   = .0020529
INCLINATION    = 97.6620
RA_OF_ASC_NODE = 14.3092
ARG_OF_PERICENTER = 229.3909
MEAN_ANOMALY   = 130.5534

EPHEMERIS_TYPE = 0
CLASSIFICATION_TYPE = U
NORAD_CAT_ID   = 65939
ELEMENT_SET_NO = 999
REV_AT_EPOCH   = 242
BSTAR          = .39915E-3
MEAN_MOTION_DOT = .6387E-4
MEAN_MOTION_DDOT = 0

CCSDS_OMM_VERS = 2.0
CREATION_DATE  = 
ORIGINATOR     = 

OBJECT_NAME    = 2025-226C
OBJECT_ID      = 2025-226C
CENTER_NAME    = EARTH
REF_FRAME      = TEME
TIME_SYSTEM    = UTC
MEAN_ELEMENT_THEORY = SGP/SGP4

EPOCH          = 2025-10-27T03:54:41.827104
MEAN_MOTION    = 15.11621114
ECCENTRICITY   = .0014449
INCLINATION    = 97.6572
RA_OF_ASC_NODE = 14.3201
ARG_OF_PERICENTER = 223.9369
MEAN_ANOMALY   = 136.0713

EPHEMERIS_TYPE = 0
CLASSIFICATION_TYPE = U
NORAD_CAT_ID   = 65940
ELEMENT_SET_NO = 999
REV_AT_EPOCH   = 242
BSTAR          = .68573E-3
MEAN_MOTION_DOT = .11623E-3
MEAN_MOTION_DDOT = 0

CCSDS_OMM_VERS = 2.0
CREATION_DATE  = 
ORIGINATOR     = 

OBJECT_NAME    = YOTSUBA-KULOVER
OBJECT_ID      = 1998-067XN
CENTER_NAME    = EARTH
REF_FRAME      = TEME
TIME_SYSTEM    = UTC
MEAN_ELEMENT_THEORY = SGP/SGP4

EPOCH          = 2025-10-26T10:30:02.017440
MEAN_MOTION    = 15.52498058
ECCENTRICITY   = .00023548
INCLINATION    = 51.6338
RA_OF_ASC_NODE = 16.4226
ARG_OF_PERICENTER = 309.1775
MEAN_ANOMALY   = 50.9005

EPHEMERIS_TYPE = 0
CLASSIFICATION_TYPE = U
NORAD_CAT_ID   = 65941
ELEMENT_SET_NO = 999
REV_AT_EPOCH   = 249
BSTAR          = .81795852E-3
MEAN_MOTION_DOT = .50897E-3
MEAN_MOTION_DDOT = 0

CCSDS_OMM_VERS = 2.0
CREATION_DATE  = 
ORIGINATOR     = 

OBJECT_NAME    = BOTAN
OBJECT_ID      = 1998-067XP
CENTER_NAME    = EARTH
REF_FRAME      = TEME
TIME_SYSTEM    = UTC
MEAN_ELEMENT_THEORY = SGP/SGP4

EPOCH          = 2025-10-26T15:03:30.874752
MEAN_MOTION    = 15.53142007
ECCENTRICITY   = .00041915
INCLINATION    = 51.6339
RA_OF_ASC_NODE = 15.4407
ARG_OF_PERICENTER = 334.4540
MEAN_ANOMALY   = 25.6243

EPHEMERIS_TYPE = 0
CLASSIFICATION_TYPE = U
NORAD_CAT_ID   = 65942
ELEMENT_SET_NO = 999
REV_AT_EPOCH   = 252
BSTAR          = .11331221E-2
MEAN_MOTION_DOT = .72575E-3
MEAN_MOTION_DDOT = 0

CCSDS_OMM_VERS = 2.0
CREATION_DATE  = 
ORIGINATOR     = 

OBJECT_NAME    = E-KAGAKU-1
OBJECT_ID      = 1998-067XQ
CENTER_NAME    = EARTH
REF_FRAME      = TEME
TIME_SYSTEM    = UTC
MEAN_ELEMENT_THEORY = SGP/SGP4

EPOCH          = 2025-10-26T10:29:28.283424
MEAN_MOTION    = 15.52513453
ECCENTRICITY   = .00040855
INCLINATION    = 51.6337
RA_OF_ASC_NODE = 16.4198
ARG_OF_PERICENTER = 323.6954
MEAN_ANOMALY   = 36.3758

EPHEMERIS_TYPE = 0
CLASSIFICATION_TYPE = U
NORAD_CAT_ID   = 65943
ELEMENT_SET_NO = 999
REV_AT_EPOCH   = 249
BSTAR          = .79166282E-3
MEAN_MOTION_DOT = .49272E-3
MEAN_MOTION_DDOT = 0

CCSDS_OMM_VERS = 2.0
CREATION_DATE  = 
ORIGINATOR     = 

OBJECT_NAME    = 2025-226D
OBJECT_ID      = 2025-226D
CENTER_NAME    = EARTH
REF_FRAME      = TEME
TIME_SYSTEM    = UTC
MEAN_ELEMENT_THEORY = SGP/SGP4

EPOCH          = 2025-10-17T22:42:20.181888
MEAN_MOTION    = 15.16526485
ECCENTRICITY   = .0019022
INCLINATION    = 97.6632
RA_OF_ASC_NODE = 5.1263
ARG_OF_PERICENTER = 287.2735
MEAN_ANOMALY   = 72.6416

EPHEMERIS_TYPE = 0
CLASSIFICATION_TYPE = U
NORAD_CAT_ID   = 65944
ELEMENT_SET_NO = 999
REV_AT_EPOCH   = 102
BSTAR          = 0
MEAN_MOTION_DOT = -.71E-6
MEAN_MOTION_DDOT = 0

CCSDS_OMM_VERS = 2.0
CREATION_DATE  = 
ORIGINATOR     = 

OBJECT_NAME    = SHIYAN-31
OBJECT_ID      = 2025-227A
CENTER_NAME    = EARTH
REF_FRAME      = TEME
TIME_SYSTEM    = UTC
MEAN_ELEMENT_THEORY = SGP/SGP4

EPOCH          = 2025-10-27T03:38:45.588192
MEAN_MOTION    = 15.20224413
ECCENTRICITY   = .0011341
INCLINATION    = 80.0035
RA_OF_ASC_NODE = 83.7538
ARG_OF_PERICENTER = 222.5780
MEAN_ANOMALY   = 137.4569

EPHEMERIS_TYPE = 0
CLASSIFICATION_TYPE = U
NORAD_CAT_ID   = 65945
ELEMENT_SET_NO = 999
REV_AT_EPOCH   = 209
BSTAR          = .42289E-3
MEAN_MOTION_DOT = .9202E-4
MEAN_MOTION_DDOT = 0

CCSDS_OMM_VERS = 2.0
CREATION_DATE  = 
ORIGINATOR     = 

OBJECT_NAME    = CZ-2D R/B
OBJECT_ID      = 2025-227B
CENTER_NAME    = EARTH
REF_FRAME      = TEME
TIME_SYSTEM    = UTC
MEAN_ELEMENT_THEORY = SGP/SGP4

EPOCH          = 2025-10-27T03:42:48.227904
MEAN_MOTION    = 15.27287723
ECCENTRICITY   = .0021485
INCLINATION    = 80.1542
RA_OF_ASC_NODE = 84.0120
ARG_OF_PERICENTER = 350.1943
MEAN_ANOMALY   = 9.8865

EPHEMERIS_TYPE = 0
CLASSIFICATION_TYPE = U
NORAD_CAT_ID   = 65946
ELEMENT_SET_NO = 999
REV_AT_EPOCH   = 210
BSTAR          = .42105E-3
MEAN_MOTION_DOT = .11354E-3
MEAN_MOTION_DDOT = 0

CCSDS_OMM_VERS = 2.0
CREATION_DATE  = 
ORIGINATOR     = 

OBJECT_NAME    = KUIPER-00101
OBJECT_ID      = 2025-228A
CENTER_NAME    = EARTH
REF_FRAME      = TEME
TIME_SYSTEM    = UTC
MEAN_ELEMENT_THEORY = SGP/SGP4

EPOCH          = 2025-10-27T02:29:29.802624
MEAN_MOTION    = 15.34587263
ECCENTRICITY   = .000589
INCLINATION    = 51.8801
RA_OF_ASC_NODE = 245.2291
ARG_OF_PERICENTER = 181.2024
MEAN_ANOMALY   = 178.8948

EPHEMERIS_TYPE = 0
CLASSIFICATION_TYPE = U
NORAD_CAT_ID   = 65947
ELEMENT_SET_NO = 999
REV_AT_EPOCH   = 325
BSTAR          = .87567E-3
MEAN_MOTION_DOT = .29542E-3
MEAN_MOTION_DDOT = 0

CCSDS_OMM_VERS = 2.0
CREATION_DATE  = 
ORIGINATOR     = 

OBJECT_NAME    = KUIPER-00113
OBJECT_ID      = 2025-228B
CENTER_NAME    = EARTH
REF_FRAME      = TEME
TIME_SYSTEM    = UTC
MEAN_ELEMENT_THEORY = SGP/SGP4

EPOCH          = 2025-10-27T04:00:07.259616
MEAN_MOTION    = 15.34830203
ECCENTRICITY   = .0006303
INCLINATION    = 51.8803
RA_OF_ASC_NODE = 244.9035
ARG_OF_PERICENTER = 177.7708
MEAN_ANOMALY   = 182.3307

EPHEMERIS_TYPE = 0
CLASSIFICATION_TYPE = U
NORAD_CAT_ID   = 65948
ELEMENT_SET_NO = 999
REV_AT_EPOCH   = 326
BSTAR          = .49223E-3
MEAN_MOTION_DOT = .16541E-3
MEAN_MOTION_DDOT = 0

