STARLINK-35473          
1 65937U 25225AD  25300.16247959  .00285836  00000+0  18821-2 0  9992
2 65937  53.1597  69.5235 0000615  78.1218 281.9871 15.74291255  3023
2025-226A               
1 65938U 25226A   25300.16179966  .00011719  00000+0  68922-3 0  9991
2 65938  97.6663  14.3387 0014494 226.0799 133.9236 15.11732962  2436
2025-226B               
1 65939U 25226B   25300.17821404  .00006387  00000+0  39915-3 0  9999
2 65939  97.6620  14.3092 0020529 229.3909 130.5534 15.09632900  2429
2025-226C               
1 65940U 25226C   25300.16298411  .00011623  00000+0  68573-3 0  9997
2 65940  97.6572  14.3201 0014449 223.9369 136.0713 15.11621114  2421
YOTSUBA-KULOVER         
1 65941U 98067XN  25299.43752335  .00050897  00000+0  81796-3 0  9996
2 65941  51.6338  16.4226 0002354 309.1775  50.9005 15.52498058  2491
BOTAN                   
1 65942U 98067XP  25299.62744068  .00072575  00000+0  11331-2 0  9996
2 65942  51.6339  15.4407 0004191 334.4540  25.6243 15.53142007  2523
E-KAGAKU-1              
1 65943U 98067XQ  25299.43713291  .00049272  00000+0  79166-3 0  9999
2 65943  51.6337  16.4198 0004085 323.6954  36.3758 15.52513453  2493
2025-226D               
1 65944U 25226D   25290.94606692 -.00000071  00000+0  00000+0 0  9992
2 65944  97.6632   5.1263 0019022 287.2735  72.6416 15.16526485  1020
SHIYAN-31               
1 65945U 25227A   25300.15191653  .00009202  00000+0  42289-3 0  9998
2 65945  80.0035  83.7538 0011341 222.5780 137.4569 15.20224413  2097
CZ-2D R/B               
1 65946U 25227B   25300.15472486  .00011354  00000+0  42105-3 0  9993
2 65946  80.1542  84.0120 0021485 350.1943   9.8865 15.27287723  2105
KUIPER-00101            
1 65947U 25228A   25300.10381716  .00029542  00000+0  87567-3 0  9994
2 65947  51.8801 245.2291 0005890 181.2024 178.8948 15.34587263  3250
KUIPER-00113            
1 65948U 25228B   25300.16675069  .00016541  00000+0  49223-3 0  9990
2 65948  51.8803 244.9035 0006303 177.7708 182.3307 15.34830203  3269
